LEMUR-2-KADI
1 43184U 18014E   24002.66187565  .00008533  00000-0  54962-3 0  9994
2 43184  97.5884 266.8844 0011965 170.1414 190.0052 15.08529560323625
